[
    {
        "name": "4Fingers Plaza Singapura",
        "companyId": "-MqFiiVKIt-TuQF3W9W4",
        "address": "68 Orchard Rd, #B1-07, Singapore 238839",
        "postalCode": "238839"
    },{
        "name": "4Fingers Marina Square",
        "companyId": "-MqFiiVKIt-TuQF3W9W4",
        "address": "6 Raffles Boulevard, #02-183A, Singapore 039594",
        "postalCode": "039594"
    },{
        "name": "4Fingers Orchard Gateway",
        "companyId": "-MqFiiVKIt-TuQF3W9W4",
        "address": "277 Orchard Road, #01-04/05 Orchard Gateway, Singapore 238858",
        "postalCode": "238858"
    },{
        "name": "4Fingers The Venue",
        "companyId": "-MqFiiVKIt-TuQF3W9W4",
        "address": "Block 2, Tai Thong Crescent, The Venue Shoppes, #01-26 Singapore 347836",
        "postalCode": "347836"
    },{
        "name": "4Fingers Junction 8",
        "companyId": "-MqFiiVKIt-TuQF3W9W4",
        "address": "9 Bishan Place #01-32, Singapore 579837",
        "postalCode": "579837"
    },{
        "name": "4Fingers Causeway Point",
        "companyId": "-MqFiiVKIt-TuQF3W9W4",
        "address": "1 Woodlands Square, #01-38/39, Singapore 738099",
        "postalCode": "738099"
    },{
        "name": "4Fingers JEM Shopping Mall",
        "companyId": "-MqFiiVKIt-TuQF3W9W4",
        "address": "50 Jurong Gateway Road #01-15A, JEM Shopping Mall, Singapore 608549",
        "postalCode": "608549"
    },{
        "name": "4Fingers Jurong Point",
        "companyId": "-MqFiiVKIt-TuQF3W9W4",
        "address": "1 Jurong West Central 2, #03-34, Singapore 648886",
        "postalCode": "648886"
    },{
        "name": "4Fingers Tiong Bahru Plaza",
        "companyId": "-MqFiiVKIt-TuQF3W9W4",
        "address": "302 Tiong Bahru Road, Tiong Bahru Plaza #01-105, Singapore 168732",
        "postalCode": "168732"
    },{
        "name": "4Fingers KAP Mall",
        "companyId": "-MqFiiVKIt-TuQF3W9W4",
        "address": "9 King Albert Park, #01-26, Singapore 598332",
        "postalCode": "598332"
    },{
        "name": "4Fingers Teck Whye",
        "companyId": "-MqFiiVKIt-TuQF3W9W4",
        "address": "Blk 138, Teck Whye Lane, #01-343, Singapore 680138",
        "postalCode": "680138"
    },{
        "name": "4Fingers Terminal 1",
        "companyId": "-MqFiiVKIt-TuQF3W9W4",
        "address": "80 Airport Boulevard, #03-47 Terminal 1 Departure/Transit Lounge East, Singapore Changi Airport, Singapore 819642",
        "postalCode": "819642"
    },{
        "name": "4Fingers Terminal 3",
        "companyId": "-MqFiiVKIt-TuQF3W9W4",
        "address": "65 Airport Boulevard, #B2-02 Changi Airport Terminal 3, Singapore 819663",
        "postalCode": "819663"
    },{
        "name": "4Fingers Tampines 1",
        "companyId": "-MqFiiVKIt-TuQF3W9W4",
        "address": "10 Tampines Central 1, #01-39/40, Singapore 529536",
        "postalCode": "529536"
    },{
        "name": "4Fingers Joo Chiat",
        "companyId": "-MqFiiVKIt-TuQF3W9W4",
        "address": "192 Joo Chiat Road, #01-00, Singapore 427463",
        "postalCode": "427463"
    },{
        "name": "4Fingers Stars of Kovan",
        "companyId": "-MqFiiVKIt-TuQF3W9W4",
        "address": "988 Upper Serangoon Rd, #01-29, Stars of Kovan, Singapore 534733",
        "postalCode": "534733"
    },{
        "name": "4Fingers New Upper Changi",
        "companyId": "-MqFiiVKIt-TuQF3W9W4",
        "address": "56 New Upper Changi Road, #01-1316, Singapore 461056",
        "postalCode": "461056"
    },{
        "name": "4Fingers Jalan Kayu",
        "companyId": "-MqFiiVKIt-TuQF3W9W4",
        "address": "225 Jalan Kayu, Singapore 799449",
        "postalCode": "799449"
    }
]