[
    {
        "name": "McDonald’s Alocassia",
        "companyId": "ad5d5c7e-1d47-450a-93f3-7f99af5764a0",
        "address": "383 Bukit Timah Road #01-09B Alocassia Apartments, Singapore 259727",
        "postalCode": "259727"
    },
    {
        "name": "McDonald’s Ang Mo Kio",
        "companyId": "ad5d5c7e-1d47-450a-93f3-7f99af5764a0",
        "address": "51 Ang Mo Kio Avenue 3 #01-04 51 @ AMK, Singapore 569922",
        "postalCode": "569922"
    },
    {
        "name": "McDonald’s Ang Mo Kio 4",
        "companyId": "ad5d5c7e-1d47-450a-93f3-7f99af5764a0",
        "address": "163 Ang Mo Kio Avenue 4 #01-438, Singapore 560163",
        "postalCode": "560163"
    },
    {
        "name": "McDonald’s Ang Mo Kio Ave 10",
        "companyId": "ad5d5c7e-1d47-450a-93f3-7f99af5764a0",
        "address": "448 Ang Mo Kio Avenue 10 #01-1693, Singapore 560448",
        "postalCode": "560448"
    },
    {
        "name": "McDonald’s Ang Mo Kio Park",
        "companyId": "ad5d5c7e-1d47-450a-93f3-7f99af5764a0",
        "address": "10 Ang Mo Kio Street 12, Singapore 567740",
        "postalCode": "567740"
    },
    {
        "name": "McDonald’s Aperia Mall",
        "companyId": "ad5d5c7e-1d47-450a-93f3-7f99af5764a0",
        "address": "12 Kallang Avenue Aperia #01-24, Singapore 339511",
        "postalCode": "339511"
    },
    {
        "name": "McDonald’s Beauty World",
        "companyId": "ad5d5c7e-1d47-450a-93f3-7f99af5764a0",
        "address": "144 Upper Bukit Timah Road #01-39 &amp; #01-40 Beauty World Centre, Singapore 588177",
        "postalCode": "588177"
    },
    {
        "name": "McDonald’s Bedok Mall",
        "companyId": "ad5d5c7e-1d47-450a-93f3-7f99af5764a0",
        "address": "311 New Upper Changi Road Unit #01-10/11 Bedok Mall, Singapore 467360",
        "postalCode": "467360"
    },
    {
        "name": "McDonald’s Bedok North",
        "companyId": "ad5d5c7e-1d47-450a-93f3-7f99af5764a0",
        "address": "539 Bedok North Street 3 #01-643, Singapore 460539",
        "postalCode": "460539"
    },
    {
        "name": "McDonald’s Bedok Reservoir",
        "companyId": "ad5d5c7e-1d47-450a-93f3-7f99af5764a0",
        "address": "632 Bedok Reservoir Road #01-850, Singapore 470632",
        "postalCode": "470632"
    },
    {
        "name": "McDonald’s Bedok Reservoir Park",
        "companyId": "ad5d5c7e-1d47-450a-93f3-7f99af5764a0",
        "address": "Blk 744 Bedok Reservoir Road #01-3019, Singapore 470744",
        "postalCode": "470744"
    },
    {
        "name": "McDonald’s Bendemeer",
        "companyId": "ad5d5c7e-1d47-450a-93f3-7f99af5764a0",
        "address": "22 Boon Keng Road #01-01, Singapore 330022",
        "postalCode": "330022"
    },
    {
        "name": "McDonald’s Bishan Junction 8",
        "companyId": "ad5d5c7e-1d47-450a-93f3-7f99af5764a0",
        "address": "9 Bishan Place #01-20 Junction 8, Singapore 579837",
        "postalCode": "579837"
    },
    {
        "name": "McDonald’s Bishan Park",
        "companyId": "ad5d5c7e-1d47-450a-93f3-7f99af5764a0",
        "address": "1378 Ang Mo Kio Ave 1, Singapore 569981",
        "postalCode": "569981"
    },
    {
        "name": "McDonald’s Boat Quay",
        "companyId": "ad5d5c7e-1d47-450a-93f3-7f99af5764a0",
        "address": "1 South Canal Road, Singapore 048508",
        "postalCode": "048508"
    },
    {
        "name": "McDonald’s Buangkok Square",
        "companyId": "ad5d5c7e-1d47-450a-93f3-7f99af5764a0",
        "address": "Blk 991 Buangkok Link #01-14, Singapore 530991",
        "postalCode": "530991"
    },
    {
        "name": "McDonald’s Bugis Junction",
        "companyId": "ad5d5c7e-1d47-450a-93f3-7f99af5764a0",
        "address": "200 Victoria Street #01-66 Bugis Junction, Singapore 188024",
        "postalCode": "188024"
    },
    {
        "name": "McDonald’s Bugis Village",
        "companyId": "ad5d5c7e-1d47-450a-93f3-7f99af5764a0",
        "address": "151/152 Rochor Road, Singapore 188426",
        "postalCode": "188426"
    },
    {
        "name": "McDonald’s Bukit Batok",
        "companyId": "ad5d5c7e-1d47-450a-93f3-7f99af5764a0",
        "address": "632 Bukit Batok Central #01-138/#01-140 / #01-142, Singapore 650632",
        "postalCode": "650632"
    },
    {
        "name": "McDonald’s Bukit Batok West",
        "companyId": "ad5d5c7e-1d47-450a-93f3-7f99af5764a0",
        "address": "152 Bukit Batok Street 11 #01-280, Singapore 650152",
        "postalCode": "650152"
    },
    {
        "name": "McDonald’s Bukit Gombak",
        "companyId": "ad5d5c7e-1d47-450a-93f3-7f99af5764a0",
        "address": "374 Bukit Batok Street 31 #01-198 &amp; #01-202, Singapore 650374",
        "postalCode": "650374"
    },
    {
        "name": "McDonald’s Bukit Panjang Plaza",
        "companyId": "ad5d5c7e-1d47-450a-93f3-7f99af5764a0",
        "address": "1 Jelebu Road #02-01 Bukit Panjang Plaza, Singapore 677743",
        "postalCode": "677743"
    },
    {
        "name": "McDonald’s Canberra",
        "companyId": "ad5d5c7e-1d47-450a-93f3-7f99af5764a0",
        "address": "Blk 133 Canberra View, #01-01 to&nbsp; #01-03, Singapore 750133",
        "postalCode": "750133"
    },
    {
        "name": "McDonald’s Causeway Point",
        "companyId": "ad5d5c7e-1d47-450a-93f3-7f99af5764a0",
        "address": "1 Woodlands Square #01-35 Causeway Point, Singapore 738099",
        "postalCode": "738099"
    },
    {
        "name": "McDonald’s Changi City Point",
        "companyId": "ad5d5c7e-1d47-450a-93f3-7f99af5764a0",
        "address": "5 Changi Business Park Central 1 #01-10/11 Changi City Point, Singapore 486038",
        "postalCode": "486038"
    },
    {
        "name": "McDonald’s Chinatown Point",
        "companyId": "ad5d5c7e-1d47-450a-93f3-7f99af5764a0",
        "address": "133 New Bridge Road #01-03 Chinatown Point, Singapore 059432",
        "postalCode": "059432"
    },
    {
        "name": "McDonald’s Choa Chu Kang  62",
        "companyId": "ad5d5c7e-1d47-450a-93f3-7f99af5764a0",
        "address": "Blk 624 Choa Chu Kang Street 62 #01-262/264. Singapore 680624, Singapore 680623",
        "postalCode": "680623"
    },
    {
        "name": "McDonald’s Choa Chu Kang 4",
        "companyId": "ad5d5c7e-1d47-450a-93f3-7f99af5764a0",
        "address": "21 Choa Chu Kang Avenue 4 Lot 1 Shopper's Mall #01-20, Singapore 689812",
        "postalCode": "689812"
    },
    {
        "name": "McDonald’s Choa Chu Kang 4 (Kiosk)",
        "companyId": "ad5d5c7e-1d47-450a-93f3-7f99af5764a0",
        "address": "10 Choa Chu Kang Avenue 4 #01-21 Cold Kiosk at Choa Chu Kang MRT Station, Singapore 689810",
        "postalCode": "689810"
    },
    {
        "name": "McDonald’s Chua Chu Kang CC",
        "companyId": "ad5d5c7e-1d47-450a-93f3-7f99af5764a0",
        "address": "35 Teck Whye Avenue #01-01 Chua Chu Kang Community Club, Singapore 688892",
        "postalCode": "688892"
    },
    {
        "name": "McDonald’s City Square Mall",
        "companyId": "ad5d5c7e-1d47-450a-93f3-7f99af5764a0",
        "address": "180 Kitchener Rd #B1-03/05 City Square Mall, Singapore 208539",
        "postalCode": "208539"
    },
    {
        "name": "McDonald’s Clementi Avenue 3",
        "companyId": "ad5d5c7e-1d47-450a-93f3-7f99af5764a0",
        "address": "451 Clementi Ave 3 # 01-309, Singapore 120451",
        "postalCode": "120451"
    },
    {
        "name": "McDonald’s Clementi Mall",
        "companyId": "ad5d5c7e-1d47-450a-93f3-7f99af5764a0",
        "address": "3155 Commonwealth Ave West #01-06/07/08/09 &amp;02-06/07/08 The Clementi Mall, Singapore 129588",
        "postalCode": "129588"
    },
    {
        "name": "McDonald’s Clifford Centre",
        "companyId": "ad5d5c7e-1d47-450a-93f3-7f99af5764a0",
        "address": "24 Raffles place Singapore 048621 #B1-01/10 Clifford centre, Singapore 048621",
        "postalCode": "048621"
    },
    {
        "name": "McDonald’s Compass 1",
        "companyId": "ad5d5c7e-1d47-450a-93f3-7f99af5764a0",
        "address": "1 Sengkang Square #B1-13, Singapore 545078",
        "postalCode": "545078"
    },
    {
        "name": "McDonald’s Downtown East",
        "companyId": "ad5d5c7e-1d47-450a-93f3-7f99af5764a0",
        "address": "1 Pasir Ris Close #01-338 Downtown East, Singapore 519599",
        "postalCode": "519599"
    },
    {
        "name": "McDonald’s East Point Mall",
        "companyId": "ad5d5c7e-1d47-450a-93f3-7f99af5764a0",
        "address": "3 Simei Street 6, #01-34 Eastpoint Mall, Singapore 528833",
        "postalCode": "528833"
    },
    {
        "name": "McDonald’s Elias Community Centre",
        "companyId": "ad5d5c7e-1d47-450a-93f3-7f99af5764a0",
        "address": "93 Pasir Ris Drive 3 #01-02 Pasir Ris Elias Community Centre, Singapore 519498",
        "postalCode": "519498"
    },
    {
        "name": "McDonald’s Fairprice Hub",
        "companyId": "ad5d5c7e-1d47-450a-93f3-7f99af5764a0",
        "address": "1 Joo Koon Circle, Provisional Unit #01-27/28/29/30/31, Singapore 629117",
        "postalCode": "629117"
    },
    {
        "name": "McDonald’s Fajar",
        "companyId": "ad5d5c7e-1d47-450a-93f3-7f99af5764a0",
        "address": "445 Fajar Road #01-520, Singapore 670445",
        "postalCode": "670445"
    },
    {
        "name": "McDonald’s Farrer Road",
        "companyId": "ad5d5c7e-1d47-450a-93f3-7f99af5764a0",
        "address": "10 Jalan Serene #01-01 Serene Centre, Singapore 258748",
        "postalCode": "258748"
    },
    {
        "name": "McDonald’s Forum Galleria",
        "companyId": "ad5d5c7e-1d47-450a-93f3-7f99af5764a0",
        "address": "583 Orchard Road #B1-25, #B1-33 to #B1-35 Forum The Shopping Mall, Singapore 238884",
        "postalCode": "238884"
    },
    {
        "name": "McDonald’s Funan Center",
        "companyId": "ad5d5c7e-1d47-450a-93f3-7f99af5764a0",
        "address": "107 North Bridge Road, Funan #01-16/17/21, Singapore 179105",
        "postalCode": "179105"
    },
    {
        "name": "McDonald’s Gardens By The Bay",
        "companyId": "ad5d5c7e-1d47-450a-93f3-7f99af5764a0",
        "address": "18 Marina Gardens Drive #02-04, Garden By The Bay, Visitor Centre, Singapore 018954",
        "postalCode": "018954"
    },
    {
        "name": "McDonald’s Gek Poh",
        "companyId": "ad5d5c7e-1d47-450a-93f3-7f99af5764a0",
        "address": "762 Jurong West Street 75 #02-250, Singapore 640762",
        "postalCode": "640762"
    },
    {
        "name": "McDonald’s Geylang East Central",
        "companyId": "ad5d5c7e-1d47-450a-93f3-7f99af5764a0",
        "address": "113 Aljunied Ave 2 #01-01, Singapore 380113",
        "postalCode": "380113"
    },
    {
        "name": "McDonald’s Great World City",
        "companyId": "ad5d5c7e-1d47-450a-93f3-7f99af5764a0",
        "address": "1 Kim Seng Promenade #01-124 Great World City, Singapore 237994",
        "postalCode": "237994"
    },
    {
        "name": "McDonald’s Greenridge Shopping Centre",
        "companyId": "ad5d5c7e-1d47-450a-93f3-7f99af5764a0",
        "address": "Blk 524A Jelapang Road #01-02A, Singapore 671524",
        "postalCode": "671524"
    },
    {
        "name": "McDonald’s HarbourFront Centre",
        "companyId": "ad5d5c7e-1d47-450a-93f3-7f99af5764a0",
        "address": "1 Maritime Square #01-87, #01-88 and #01-89 HarbourFront Centre, Singapore 099253",
        "postalCode": "099253"
    },
    {
        "name": "McDonald’s Hillion Mall",
        "companyId": "ad5d5c7e-1d47-450a-93f3-7f99af5764a0",
        "address": "17 Petir Road, # B1 – 25 Hillion Mall, Singapore 678278",
        "postalCode": "678278"
    },
    {
        "name": "McDonald’s Hougang",
        "companyId": "ad5d5c7e-1d47-450a-93f3-7f99af5764a0",
        "address": "208 Hougang Street 21 #01-217, Singapore 530208",
        "postalCode": "530208"
    },
    {
        "name": "McDonald’s Hougang 1",
        "companyId": "ad5d5c7e-1d47-450a-93f3-7f99af5764a0",
        "address": "1 Hougang Street 91 #01-26/39 Hougang 1, Singapore 538692",
        "postalCode": "538692"
    },
    {
        "name": "McDonald’s Hougang 8",
        "companyId": "ad5d5c7e-1d47-450a-93f3-7f99af5764a0",
        "address": "684 Hougang Avenue 8 #01-999, Singapore 530684",
        "postalCode": "530684"
    },
    {
        "name": "McDonald’s Hougang Mall",
        "companyId": "ad5d5c7e-1d47-450a-93f3-7f99af5764a0",
        "address": "90 Hougang Avenue 10 #01-17 Hougang Mall, Singapore 538766",
        "postalCode": "538766"
    },
    {
        "name": "McDonald’s IMM",
        "companyId": "ad5d5c7e-1d47-450a-93f3-7f99af5764a0",
        "address": "2 Jurong East St 21 #01-18 IMM Building, Singapore 609601",
        "postalCode": "609601"
    },
    {
        "name": "McDonald’s JCube",
        "companyId": "ad5d5c7e-1d47-450a-93f3-7f99af5764a0",
        "address": "2 Jurong East Central 1 #01-09 JCube, Singapore 609731",
        "postalCode": "609731"
    },
    {
        "name": "McDonald’s JEM",
        "companyId": "ad5d5c7e-1d47-450a-93f3-7f99af5764a0",
        "address": "50 Jurong Gateway Road #01-63, #02-55 JEM<sup>®</sup>, Singapore 608549",
        "postalCode": "608549"
    },
    {
        "name": "McDonald’s Jurong Bowl",
        "companyId": "ad5d5c7e-1d47-450a-93f3-7f99af5764a0",
        "address": "1 Yuan Ching Road Jurong Family Bowl, Singapore 618640",
        "postalCode": "618640"
    },
    {
        "name": "McDonald’s Jurong Central Park",
        "companyId": "ad5d5c7e-1d47-450a-93f3-7f99af5764a0",
        "address": "291 Boon Lay Way, Singapore 649849",
        "postalCode": "649849"
    },
    {
        "name": "McDonald’s Jurong East 24",
        "companyId": "ad5d5c7e-1d47-450a-93f3-7f99af5764a0",
        "address": "Blk 256 Jurong East Street 24 #01-381, Singapore 600256",
        "postalCode": "600256"
    },
    {
        "name": "McDonald’s Jurong Green CC",
        "companyId": "ad5d5c7e-1d47-450a-93f3-7f99af5764a0",
        "address": "6A Jurong West Avenue 1, Singapore 649520",
        "postalCode": "649520"
    },
    {
        "name": "McDonald’s Jurong Point",
        "companyId": "ad5d5c7e-1d47-450a-93f3-7f99af5764a0",
        "address": "1 Jurong West Central 2 #01-31 Jurong Point, Singapore 648886",
        "postalCode": "648886"
    },
    {
        "name": "McDonald’s Jurong Spring CC (JSC2)",
        "companyId": "ad5d5c7e-1d47-450a-93f3-7f99af5764a0",
        "address": ", Singapore 649296",
        "postalCode": "649296"
    },
    {
        "name": "McDonald’s Kallang",
        "companyId": "ad5d5c7e-1d47-450a-93f3-7f99af5764a0",
        "address": ", Singapore ",
        "postalCode": "apore "
    },
    {
        "name": "McDonald’s Keat Hong",
        "companyId": "ad5d5c7e-1d47-450a-93f3-7f99af5764a0",
        "address": "818 Choa Chu Kang Avenue 1#01-02, Singapore 680818",
        "postalCode": "680818"
    },
    {
        "name": "McDonald’s Khatib",
        "companyId": "ad5d5c7e-1d47-450a-93f3-7f99af5764a0",
        "address": "846 Yishun Ring Road #01-3669, Singapore 760846",
        "postalCode": "760846"
    },
    {
        "name": "McDonald’s LeQuest",
        "companyId": "ad5d5c7e-1d47-450a-93f3-7f99af5764a0",
        "address": "4 Bukit Batok Street 41 #01-42 to #01-45, #01-50 to #01-54, Singapore 657991",
        "postalCode": "657991"
    },
    {
        "name": "McDonald’s LIDO",
        "companyId": "ad5d5c7e-1d47-450a-93f3-7f99af5764a0",
        "address": "350 Orchard Road #05-12/13 and #05/21 Shaw House,, Singapore 238868",
        "postalCode": "238868"
    },
    {
        "name": "McDonald’s Loyang Point",
        "companyId": "ad5d5c7e-1d47-450a-93f3-7f99af5764a0",
        "address": "Block 258 Pasir Ris Street 21 #01-25, Loyang Point, Singapore 510258",
        "postalCode": "510258"
    },
    {
        "name": "McDonald’s Lucky Plaza",
        "companyId": "ad5d5c7e-1d47-450a-93f3-7f99af5764a0",
        "address": "304 Orchard Road #B1-19 to #B1-24, #B1-44 to #B1-46 Lucky Plaza, Singapore 238863",
        "postalCode": "238863"
    },
    {
        "name": "McDonald’s Marina Square",
        "companyId": "ad5d5c7e-1d47-450a-93f3-7f99af5764a0",
        "address": "6 Raffles Boulevard #02-156/ #02-157/ #02-166 Marina Square, Singapore 039594",
        "postalCode": "039594"
    },
    {
        "name": "McDonald’s Marine Cove",
        "companyId": "ad5d5c7e-1d47-450a-93f3-7f99af5764a0",
        "address": "Marine Cove,1000 East Coast Parkway East Coast Park #01-05, Singapore 449876",
        "postalCode": "449876"
    },
    {
        "name": "McDonald’s Metropolis",
        "companyId": "ad5d5c7e-1d47-450a-93f3-7f99af5764a0",
        "address": "9 Buona Vista Drive, Tower 1, #01-08, The Metropolis, Singapore 138588",
        "postalCode": "138588"
    },
    {
        "name": "McDonald’s Nanyang Technological University",
        "companyId": "ad5d5c7e-1d47-450a-93f3-7f99af5764a0",
        "address": "76 Nanyang Drive, Block N2.1 #01-08 Nanyang Technological University, Singapore 637331",
        "postalCode": "637331"
    },
    {
        "name": "McDonald’s NEX",
        "companyId": "ad5d5c7e-1d47-450a-93f3-7f99af5764a0",
        "address": "23 Serangoon Central #B2-05/06/07/08 NEX, Singapore 556083",
        "postalCode": "556083"
    },
    {
        "name": "McDonald’s Northpoint",
        "companyId": "ad5d5c7e-1d47-450a-93f3-7f99af5764a0",
        "address": "930 Yishun Avenue 2 #01-12/13 Northpoint City North Wing, Singapore 769098",
        "postalCode": "769098"
    },
    {
        "name": "McDonald’s Parklane",
        "companyId": "ad5d5c7e-1d47-450a-93f3-7f99af5764a0",
        "address": "35 Selegie Road #B1-38 Parklane Shopping Mall, Singapore 188307",
        "postalCode": "188307"
    },
    {
        "name": "McDonald’s Parkway Centre",
        "companyId": "ad5d5c7e-1d47-450a-93f3-7f99af5764a0",
        "address": "1 Marine Parade Central #01-01 Parkway Centre, Singapore 449408",
        "postalCode": "449408"
    },
    {
        "name": "McDonald’s Pasir Ris Central",
        "companyId": "ad5d5c7e-1d47-450a-93f3-7f99af5764a0",
        "address": "1 Pasir Ris Central Street 3 #01-28/29 White Sands, Singapore 518457",
        "postalCode": "518457"
    },
    {
        "name": "McDonald’s Pasir Ris Sports Complex",
        "companyId": "ad5d5c7e-1d47-450a-93f3-7f99af5764a0",
        "address": "120 Pasir Ris Central #01-12 Pasir Ris Sports and Recreation Centre, Singapore 519640",
        "postalCode": "519640"
    },
    {
        "name": "McDonald’s Paya Lebar Square",
        "companyId": "ad5d5c7e-1d47-450a-93f3-7f99af5764a0",
        "address": "60 Paya Lebar Road, Provisional Unit #01-68/69/74/75/76/K3 Paya Lebar Square, Singapore 409051",
        "postalCode": "409051"
    },
    {
        "name": "McDonald’s People’s Park",
        "companyId": "ad5d5c7e-1d47-450a-93f3-7f99af5764a0",
        "address": "1 Park Road #01-69 to #01-75 People's Park Complex, Singapore 059108",
        "postalCode": "059108"
    },
    {
        "name": "McDonald’s Pioneer Mall",
        "companyId": "ad5d5c7e-1d47-450a-93f3-7f99af5764a0",
        "address": "638 Jurong West Street 61 #01-01/02 Pioneer Mall, Singapore 640638",
        "postalCode": "640638"
    },
    {
        "name": "McDonald’s Plaza Singapura",
        "companyId": "ad5d5c7e-1d47-450a-93f3-7f99af5764a0",
        "address": "68 Orchard Road #B1-23/24 Plaza Singapura, Singapore 238839",
        "postalCode": "238839"
    },
    {
        "name": "McDonald’s Potong Pasir",
        "companyId": "ad5d5c7e-1d47-450a-93f3-7f99af5764a0",
        "address": "148 Potong Pasir Ave 1 #01-43, Singapore 350148",
        "postalCode": "350148"
    },
    {
        "name": "McDonald’s PSA",
        "companyId": "ad5d5c7e-1d47-450a-93f3-7f99af5764a0",
        "address": "460 Alexandra Road #01-25 PSA Building, Singapore 119963",
        "postalCode": "119963"
    },
    {
        "name": "McDonald’s Punggol 21 Community Centre",
        "companyId": "ad5d5c7e-1d47-450a-93f3-7f99af5764a0",
        "address": "80 Punggol Field #01-02, Singapore 828815",
        "postalCode": "828815"
    },
    {
        "name": "McDonald’s Punggol North Shore",
        "companyId": "ad5d5c7e-1d47-450a-93f3-7f99af5764a0",
        "address": "Blk 407 Northshore Drive unit no #02-27 to #02-30 and #02-31 Northshore Plaza 1, Singapore 820407",
        "postalCode": "820407"
    },
    {
        "name": "McDonald’s Punggol Oasis",
        "companyId": "ad5d5c7e-1d47-450a-93f3-7f99af5764a0",
        "address": "681 Punggol Drive, #02-37/38 Oasis Terraces, Singapore 820681",
        "postalCode": "820681"
    },
    {
        "name": "McDonald’s Queensway",
        "companyId": "ad5d5c7e-1d47-450a-93f3-7f99af5764a0",
        "address": "#01-580 Ridout Tea Garden, Singapore 149066",
        "postalCode": "149066"
    },
    {
        "name": "McDonald’s Queensway Shopping Centre",
        "companyId": "ad5d5c7e-1d47-450a-93f3-7f99af5764a0",
        "address": "1 Queensway #02-46 Queensway Shopping Centre, Singapore 149053",
        "postalCode": "149053"
    },
    {
        "name": "McDonald’s Raffles City",
        "companyId": "ad5d5c7e-1d47-450a-93f3-7f99af5764a0",
        "address": "252 North Bridge Road #01-49/50/51 Raffles City Shopping Centre, Singapore 179103",
        "postalCode": "179103"
    },
    {
        "name": "McDonald’s Regal",
        "companyId": "ad5d5c7e-1d47-450a-93f3-7f99af5764a0",
        "address": "3501 Jalan Bukit Merah #01-01 Regal Theatre, Singapore 159460",
        "postalCode": "159460"
    },
    {
        "name": "McDonald’s Resorts World Sentosa",
        "companyId": "ad5d5c7e-1d47-450a-93f3-7f99af5764a0",
        "address": "8 Sentosa Gateway, #B1-211, 212, 213, 214, Resorts World Sentosa, Singapore 098138",
        "postalCode": "098138"
    },
    {
        "name": "McDonald’s Rivervale Mall",
        "companyId": "ad5d5c7e-1d47-450a-93f3-7f99af5764a0",
        "address": "11 Rivervale Crescent #01-27 Rivervale Mall, Singapore 545082",
        "postalCode": "545082"
    },
    {
        "name": "McDonald’s SAFRA Punggol",
        "companyId": "ad5d5c7e-1d47-450a-93f3-7f99af5764a0",
        "address": "9 Sentul Crescent, #03-05, Singapore 828654",
        "postalCode": "828654"
    },
    {
        "name": "McDonald’s SAFRA Toa Payoh",
        "companyId": "ad5d5c7e-1d47-450a-93f3-7f99af5764a0",
        "address": "293 Toa Payoh Lorong 6 #01-02 SAFRA Clubhouse, Singapore 319387",
        "postalCode": "319387"
    },
    {
        "name": "McDonald’s SAFRA Yishun",
        "companyId": "ad5d5c7e-1d47-450a-93f3-7f99af5764a0",
        "address": "60 Yishun Avenue 4 #01-11, Singapore 769027",
        "postalCode": "769027"
    },
    {
        "name": "McDonald’s SCAPE",
        "companyId": "ad5d5c7e-1d47-450a-93f3-7f99af5764a0",
        "address": "2 Orchard Link #02-43 *SCAPE, Singapore 237978",
        "postalCode": "237978"
    },
    {
        "name": "McDonald’s Seletar Mall",
        "companyId": "ad5d5c7e-1d47-450a-93f3-7f99af5764a0",
        "address": "33 Sengkang West Ave #01-04/05/06 Seletar Mall, Singapore 797653",
        "postalCode": "797653"
    },
    {
        "name": "McDonald’s Sengkang Rivervale Plaza",
        "companyId": "ad5d5c7e-1d47-450a-93f3-7f99af5764a0",
        "address": "118 Rivervale Drive #01-32, Singapore 540118",
        "postalCode": "540118"
    },
    {
        "name": "McDonald’s Sengkang Sports Complex",
        "companyId": "ad5d5c7e-1d47-450a-93f3-7f99af5764a0",
        "address": "57 Anchorvale Road #02-03 Sengkang Sport &amp; Recreation Centre, Singapore 544964",
        "postalCode": "544964"
    },
    {
        "name": "McDonald’s Serangoon Avenue 3",
        "companyId": "ad5d5c7e-1d47-450a-93f3-7f99af5764a0",
        "address": "267 Serangoon Ave 3 #01-37, Singapore 550267",
        "postalCode": "550267"
    },
    {
        "name": "McDonald’s Shell Havelock",
        "companyId": "ad5d5c7e-1d47-450a-93f3-7f99af5764a0",
        "address": "548 Havelock Road, Singapore 169637",
        "postalCode": "169637"
    },
    {
        "name": "McDonald’s Shell Hougang",
        "companyId": "ad5d5c7e-1d47-450a-93f3-7f99af5764a0",
        "address": "600 Hougang Avenue 3, #01-01, Singapore 538846",
        "postalCode": "538846"
    },
    {
        "name": "McDonald’s Shell Tampines",
        "companyId": "ad5d5c7e-1d47-450a-93f3-7f99af5764a0",
        "address": "9 Tampines Avenue 2 S 529731, Singapore ",
        "postalCode": "apore "
    },
    {
        "name": "McDonald’s Siglap",
        "companyId": "ad5d5c7e-1d47-450a-93f3-7f99af5764a0",
        "address": "55 Siglap Road #01-07, #01-08 &amp; #01-09 Siglap Centre, Singapore 455871",
        "postalCode": "455871"
    },
    {
        "name": "McDonald’s Singapore Polytechnic",
        "companyId": "ad5d5c7e-1d47-450a-93f3-7f99af5764a0",
        "address": "500 Dover Road #01-13 Teaching Block 16 Singapore Polytechnic, Singapore 139651",
        "postalCode": "139651"
    },
    {
        "name": "McDonald’s SpringLeaf Tower",
        "companyId": "ad5d5c7e-1d47-450a-93f3-7f99af5764a0",
        "address": "3 Anson Road #01-03 Springleaf Tower, Singapore 079909",
        "postalCode": "079909"
    },
    {
        "name": "McDonald’s Sun Plaza",
        "companyId": "ad5d5c7e-1d47-450a-93f3-7f99af5764a0",
        "address": "30,Sembawang Drive #01-16 /17, Singapore 757713",
        "postalCode": "757713"
    },
    {
        "name": "McDonald’s Suntec City",
        "companyId": "ad5d5c7e-1d47-450a-93f3-7f99af5764a0",
        "address": "3 Temasek Boulevard #02-732/733 Suntec City Mall, Singapore 038983",
        "postalCode": "038983"
    },
    {
        "name": "McDonald’s Tampines",
        "companyId": "ad5d5c7e-1d47-450a-93f3-7f99af5764a0",
        "address": "513 Tampines Central 1 #01-150, Singapore 521512",
        "postalCode": "521512"
    },
    {
        "name": "McDonald’s Tampines (Kiosk)",
        "companyId": "ad5d5c7e-1d47-450a-93f3-7f99af5764a0",
        "address": "Blk 513 Tampines Central 1 #01-150, Singapore 521512",
        "postalCode": "521512"
    },
    {
        "name": "McDonald’s Tampines East CC",
        "companyId": "ad5d5c7e-1d47-450a-93f3-7f99af5764a0",
        "address": "10 Tampines St 23 #01-01 Tampines East Community Centre, Singapore 529341",
        "postalCode": "529341"
    },
    {
        "name": "McDonald’s Tampines Green View",
        "companyId": "ad5d5c7e-1d47-450a-93f3-7f99af5764a0",
        "address": "Blk 614 Tampines North Drive 1, #01-09, Singapore 520614",
        "postalCode": "520614"
    },
    {
        "name": "McDonald’s Tampines Mall",
        "companyId": "ad5d5c7e-1d47-450a-93f3-7f99af5764a0",
        "address": "4 Tampines Central 5 #01-33 Tampines Mall, Singapore 529510",
        "postalCode": "529510"
    },
    {
        "name": "McDonald’s Tampines Neighborhood 3",
        "companyId": "ad5d5c7e-1d47-450a-93f3-7f99af5764a0",
        "address": "5 Tampines Street 32 #01-01, Singapore 529284",
        "postalCode": "529284"
    },
    {
        "name": "McDonald’s Tampines West CC",
        "companyId": "ad5d5c7e-1d47-450a-93f3-7f99af5764a0",
        "address": "5 Tampines Avenue 3 #01-01, Singapore 529705",
        "postalCode": "529705"
    },
    {
        "name": "McDonald’s Temasek Polytechnic",
        "companyId": "ad5d5c7e-1d47-450a-93f3-7f99af5764a0",
        "address": "21 Tampines Avenue1 30B-01-02 Temasek Polytechnic, Singapore 529757",
        "postalCode": "529757"
    },
    {
        "name": "McDonald’s Tiong Bahru Plaza",
        "companyId": "ad5d5c7e-1d47-450a-93f3-7f99af5764a0",
        "address": "302 Tiong Bahru Road #01-145/146/147 Tiong Bahru Plaza, Singapore 168732",
        "postalCode": "168732"
    },
    {
        "name": "McDonald’s Toa Payoh Central",
        "companyId": "ad5d5c7e-1d47-450a-93f3-7f99af5764a0",
        "address": "600 Toa Payoh #01-02 (formerly known as 600 Lor 4 Toa Payoh #01-02), Singapore 319515",
        "postalCode": "319515"
    },
    {
        "name": "McDonald’s Toa Payoh HDB Center",
        "companyId": "ad5d5c7e-1d47-450a-93f3-7f99af5764a0",
        "address": "490, Lorong 6 Toa Payoh #01-11, Singapore 310490",
        "postalCode": "310490"
    },
    {
        "name": "McDonald’s Toa Payoh Lorong 1",
        "companyId": "ad5d5c7e-1d47-450a-93f3-7f99af5764a0",
        "address": "109 Toa Payoh Lorong 1 #01-318, Singapore 310109",
        "postalCode": "310109"
    },
    {
        "name": "McDonald’s TradeHub 21",
        "companyId": "ad5d5c7e-1d47-450a-93f3-7f99af5764a0",
        "address": "28 Boon Lay Way #01-173/174, Singapore 609971",
        "postalCode": "609971"
    },
    {
        "name": "McDonald’s United Square",
        "companyId": "ad5d5c7e-1d47-450a-93f3-7f99af5764a0",
        "address": "101 Thomson Road #B1-11/12 United Square Shopping Mall, Singapore 307591",
        "postalCode": "307591"
    },
    {
        "name": "McDonald’s V Hotel",
        "companyId": "ad5d5c7e-1d47-450a-93f3-7f99af5764a0",
        "address": "70 Jellicoe Road #01-20 V Hotel Lavender, Singapore 208767",
        "postalCode": "208767"
    },
    {
        "name": "McDonald’s Vista Point",
        "companyId": "ad5d5c7e-1d47-450a-93f3-7f99af5764a0",
        "address": "Blk 548 Woodlands Drive 44 #01-20, Singapore 730548",
        "postalCode": "730548"
    },
    {
        "name": "McDonald’s VivoCity",
        "companyId": "ad5d5c7e-1d47-450a-93f3-7f99af5764a0",
        "address": "1 Harbour Front Walk #B2-40/41, Vivocity, Singapore 098585",
        "postalCode": "098585"
    },
    {
        "name": "McDonald’s Waterway Point",
        "companyId": "ad5d5c7e-1d47-450a-93f3-7f99af5764a0",
        "address": "83 Punggol Central, #B2-07 West Wing, Waterway Point, Singapore 828761",
        "postalCode": "828761"
    },
    {
        "name": "McDonald’s West Coast Park",
        "companyId": "ad5d5c7e-1d47-450a-93f3-7f99af5764a0",
        "address": "71 West Coast Highway, Singapore 126844",
        "postalCode": "126844"
    },
    {
        "name": "McDonald’s WoodGrove",
        "companyId": "ad5d5c7e-1d47-450a-93f3-7f99af5764a0",
        "address": "30 Woodlands Avenue 1, #01-06 The Woodgrove, Singapore 739065",
        "postalCode": "739065"
    },
    {
        "name": "McDonald’s Woodlands Civic Centre",
        "companyId": "ad5d5c7e-1d47-450a-93f3-7f99af5764a0",
        "address": "900 South Woodlands Drive #01-01 Woodlands Civic Centre, Singapore 730900",
        "postalCode": "730900"
    },
    {
        "name": "McDonald’s Woodlands Mart",
        "companyId": "ad5d5c7e-1d47-450a-93f3-7f99af5764a0",
        "address": "768 Woodlands Ave 6 #01-01, Singapore 730768",
        "postalCode": "730768"
    },
    {
        "name": "McDonald’s Yishun",
        "companyId": "ad5d5c7e-1d47-450a-93f3-7f99af5764a0",
        "address": "369 Sembawang Road #01-01, Singapore 758382",
        "postalCode": "758382"
    },
    {
        "name": "McDonald’s Yishun Blossom Spring",
        "companyId": "ad5d5c7e-1d47-450a-93f3-7f99af5764a0",
        "address": "461 Yishun Avenue 6 Blossom Spring Yishun #01-03, Singapore 760461",
        "postalCode": "760461"
    },
    {
        "name": "McDonald’s Yishun Ring Road",
        "companyId": "ad5d5c7e-1d47-450a-93f3-7f99af5764a0",
        "address": "293 Yishun Street 22 #01-237, Singapore 760293",
        "postalCode": "760293"
    },
    {
        "name": "McDonald’s Zhongshan Mall",
        "companyId": "ad5d5c7e-1d47-450a-93f3-7f99af5764a0",
        "address": "20 Ah Hood Road #01-16 Singapore, Singapore 329984",
        "postalCode": "329984"
    }
]